*******************************************************************************
Ephemeris / WWW_USER Thu Dec  5 18:35:14 2024 Pasadena, USA      / Horizons    
*******************************************************************************
Target body name: Titan (606)                     {source: sat441l}
Center body name: Earth (399)                     {source: DE441}
Center-site name: Mauna Kea
*******************************************************************************
Start time      : A.D. 2018-Nov-28 03:51:00.0000 UT      
Stop  time      : A.D. 2018-Nov-28 16:28:00.0000 UT      
Step-size       : 1 minutes
*******************************************************************************
Target pole/equ : IAU_TITAN                       {West-longitude positive}
Target radii    : 2575.15, 2574.78, 2574.47 km    {Equator_a, b, pole_c}       
Center geodetic : 204.5278, 19.8260847, 4.21024   {E-lon(deg),Lat(deg),Alt(km)}
Center cylindric: 204.5278, 6006.35451, 2151.0229 {E-lon(deg),Dxy(km),Dz(km)}
Center pole/equ : ITRF93                          {East-longitude positive}
Center radii    : 6378.137, 6378.137, 6356.752 km {Equator_a, b, pole_c}       
Target primary  : Saturn
Vis. interferer : MOON (R_eq= 1737.400) km        {source: DE441}
Rel. light bend : Sun                             {source: DE441}
Rel. lght bnd GM: 1.3271E+11 km^3/s^2                                          
Atmos refraction: NO (AIRLESS)
RA format       : HMS
Time format     : CAL 
Calendar mode   : Mixed Julian/Gregorian
RTS-only print  : NO       
EOP file        : eop.241205.p250303                                           
EOP coverage    : DATA-BASED 1962-JAN-20 TO 2024-DEC-05. PREDICTS-> 2025-MAR-02
Units conversion: 1 au= 149597870.700 km, c= 299792.458 km/s, 1 day= 86400.0 s 
Table cut-offs 1: Elevation (-90.0deg=NO ),Airmass (>38.000=NO), Daylight (YES)
Table cut-offs 2: Solar elongation (  0.0,180.0=NO ),Local Hour Angle( 0.0=NO )
Table cut-offs 3: RA/DEC angular rate (     0.0=NO )                           
*******************************************************************************
 Date__(UT)__HR:MN     R.A._________(ICRF)_________DEC
******************************************************
$$SOE
 2018-Nov-28 15:36 Am  18 31 32.556077 -22 42 24.36305
 2018-Nov-28 15:37 Am  18 31 32.574911 -22 42 24.33516
 2018-Nov-28 15:38 Am  18 31 32.593745 -22 42 24.30728
 2018-Nov-28 15:39 Am  18 31 32.612580 -22 42 24.27940
 2018-Nov-28 15:40 Am  18 31 32.631414 -22 42 24.25152
 2018-Nov-28 15:41 Am  18 31 32.650248 -22 42 24.22365
 2018-Nov-28 15:42 Am  18 31 32.669083 -22 42 24.19578
 2018-Nov-28 15:43 Am  18 31 32.687917 -22 42 24.16791
 2018-Nov-28 15:44 Am  18 31 32.706752 -22 42 24.14005
 2018-Nov-28 15:45 Am  18 31 32.725586 -22 42 24.11219
 2018-Nov-28 15:46 Am  18 31 32.744421 -22 42 24.08433
 2018-Nov-28 15:47 Am  18 31 32.763256 -22 42 24.05648
 2018-Nov-28 15:48 Nm  18 31 32.782090 -22 42 24.02863
 2018-Nov-28 15:49 Nm  18 31 32.800925 -22 42 24.00079
 2018-Nov-28 15:50 Nm  18 31 32.819760 -22 42 23.97294
 2018-Nov-28 15:51 Nm  18 31 32.838594 -22 42 23.94510
 2018-Nov-28 15:52 Nm  18 31 32.857429 -22 42 23.91727
 2018-Nov-28 15:53 Nm  18 31 32.876264 -22 42 23.88943
 2018-Nov-28 15:54 Nm  18 31 32.895099 -22 42 23.86160
 2018-Nov-28 15:55 Nm  18 31 32.913934 -22 42 23.83378
 2018-Nov-28 15:56 Nm  18 31 32.932768 -22 42 23.80595
 2018-Nov-28 15:57 Nm  18 31 32.951603 -22 42 23.77813
 2018-Nov-28 15:58 Nm  18 31 32.970438 -22 42 23.75032
 2018-Nov-28 15:59 Nm  18 31 32.989273 -22 42 23.72250
 2018-Nov-28 16:00 Nm  18 31 33.008108 -22 42 23.69469
 2018-Nov-28 16:01 Nm  18 31 33.026943 -22 42 23.66688
 2018-Nov-28 16:02 Nm  18 31 33.045778 -22 42 23.63908
 2018-Nov-28 16:03 Nm  18 31 33.064612 -22 42 23.61128
 2018-Nov-28 16:04 Nm  18 31 33.083447 -22 42 23.58348
 2018-Nov-28 16:05 Nm  18 31 33.102282 -22 42 23.55568
 2018-Nov-28 16:06 Nm  18 31 33.121117 -22 42 23.52789
 2018-Nov-28 16:07 Nm  18 31 33.139952 -22 42 23.50010
 2018-Nov-28 16:08 Nm  18 31 33.158786 -22 42 23.47231
 2018-Nov-28 16:09 Nm  18 31 33.177621 -22 42 23.44453
 2018-Nov-28 16:10 Nm  18 31 33.196456 -22 42 23.41675
 2018-Nov-28 16:11 Nm  18 31 33.215291 -22 42 23.38897
 2018-Nov-28 16:12 Nm  18 31 33.234125 -22 42 23.36119
 2018-Nov-28 16:13 Nm  18 31 33.252960 -22 42 23.33342
 2018-Nov-28 16:14 Nm  18 31 33.271795 -22 42 23.30565
 2018-Nov-28 16:15 Cm  18 31 33.290629 -22 42 23.27788
 2018-Nov-28 16:16 Cm  18 31 33.309464 -22 42 23.25012
 2018-Nov-28 16:17 Cm  18 31 33.328298 -22 42 23.22236
 2018-Nov-28 16:18 Cm  18 31 33.347133 -22 42 23.19460
 2018-Nov-28 16:19 Cm  18 31 33.365967 -22 42 23.16684
 2018-Nov-28 16:20 Cm  18 31 33.384801 -22 42 23.13909
 2018-Nov-28 16:21 Cm  18 31 33.403636 -22 42 23.11134
 2018-Nov-28 16:22 Cm  18 31 33.422470 -22 42 23.08359
 2018-Nov-28 16:23 Cm  18 31 33.441304 -22 42 23.05585
 2018-Nov-28 16:24 Cm  18 31 33.460138 -22 42 23.02811
 2018-Nov-28 16:25 Cm  18 31 33.478972 -22 42 23.00037
 2018-Nov-28 16:26 Cm  18 31 33.497806 -22 42 22.97263
 2018-Nov-28 16:27 Cm  18 31 33.516640 -22 42 22.94490
 2018-Nov-28 16:28 Cm  18 31 33.535474 -22 42 22.91716
